#aV2019  6 23  0  0  0.00000000     288 DD+AD WGS84 FIT  NGA
## 2059      0.00000000   300.00000000 58657 0.0000000000000
+   31     1  2  3  5  6  7  8  9 10 11 12 13 14 15 16 17 18
+         19 20 21 22 23 24 25 26 27 28 29 30 31 32  0  0  0
+          0  0  0  0  0  0  0  0  0  0  0  0  0  0  0  0  0
+          0  0  0  0  0  0  0  0  0  0  0  0  0  0  0  0  0
+          0  0  0  0  0  0  0  0  0  0  0  0  0  0  0  0  0
++         2  2  2  2  2  2  2  2  2  2  2  2  2  2  2  2  2
++         2  2  2  2  2  2  2  2  2  2  2  2  2  2  0  0  0
++         0  0  0  0  0  0  0  0  0  0  0  0  0  0  0  0  0
++         0  0  0  0  0  0  0  0  0  0  0  0  0  0  0  0  0
++         0  0  0  0  0  0  0  0  0  0  0  0  0  0  0  0  0
%c cc cc ccc ccc cccc cccc cccc cccc ccccc ccccc ccccc ccccc
%c cc cc ccc ccc cccc cccc cccc cccc ccccc ccccc ccccc ccccc
%f  0.0000000  0.000000000  0.00000000000  0.000000000000000
%f  0.0000000  0.000000000  0.00000000000  0.000000000000000
%i    0    0    0    0      0      0      0      0         0
%i    0    0    0    0      0      0      0      0         0
/*      NGA, ST. LOUIS,MO.                                  
/*   EPHEMERIS COMPUTED FROM 2 DAYS OF DATA                 
/*   EPOCHA v5 SMOOTHER                                     
/*   G1762 IERS2010 SATAF SATAPC                            
*  2019  6 23 21 25  0.00000000
P  1  20343.570478  14120.961811 -10223.527614    -48.849051                    
V  1 -12486.155060  -2321.258839 -28270.393550     -0.099364                    
P  2    390.956484 -15897.612267  21897.322704   -244.312232                    
V  2  25603.583158   6369.423449   4140.792055     -0.088674                    
P  3  12855.976839  19738.671039  12317.774113    184.418815                    
V  3   1024.599398  15791.671981 -26196.574905     -0.015529                    
P  5  -1544.887807 -25649.126212   6157.822922      0.405173                    
V  5   4986.346558   7076.509698  30328.414180     -0.001930                    
P  6  15400.353647  -9012.938680  19725.090530    169.489245                    
V  6  23360.103345   8694.113120 -14261.778022     -0.108181                    
P  7  25790.827675   6495.569727  -3213.389976    -50.469282                    
V  7   3274.638380   3850.488597  30978.666706     -0.076650                    
P  8   4079.896129  15732.908229 -20936.168947   -148.566919                    
V  8 -20198.354085  17432.960668   9352.806360     -0.014245                    
P  9  20572.214180  -2958.041121  16504.568447    385.491715                    
V  9 -14135.103074  15726.991589  20379.035087     -0.078825                    
P 10 -12691.665764  10186.473034 -20887.079307      6.620393                    
V 10  -6375.628142 -25948.303254  -8950.652770     -0.122355                    
P 11  16984.168051  11400.733916 -17342.540653   -577.638981                    
V 11 -20788.986510   5262.968763 -17705.799437      0.088597                    
P 12 -10206.539089 -22110.712442  10583.994652    230.373994                    
V 12   -107.809244 -13793.175736 -28179.581671     -0.035470                    
P 13   6356.008709 -19045.832034 -17469.292076    -57.723527                    
V 13  18956.471949 -11221.132720  19299.083565      0.016814                    
P 14 -17814.853006  18754.103348   5905.958212    -74.722891                    
V 14  -7390.457812   2051.413494 -30668.519415      0.017371                    
P 15  -6960.341736 -15349.674060 -20723.397634   -305.224137                    
V 15  18414.908578 -18280.338058   7843.966074      0.023439                    
P 16   -808.484366  25629.623790   5788.493377    -50.512452                    
V 16  -3322.676398  -7324.530907  31380.683767     -0.031139                    
P 17  21474.429984 -15329.978362  -2196.822257     76.791001                    
V 17  -1208.295401   3750.653358 -32159.989196      0.064676                    
P 18  12721.194634  16213.808464 -17322.705679     64.370580                    
V 18 -20692.187711  -3991.247945 -19370.639277      0.030692                    
P 19  19558.820766 -17507.164212   3960.127466   -302.864620                    
V 19   5593.450000  -1477.219792 -31651.091803      0.047604                    
P 20 -16402.564166    328.929903 -21011.092468    525.564474                    
V 20  -7964.752626 -25322.087732   5691.710998      0.002289                    
P 21 -25228.302149  -1408.930480  -7112.860685   -167.560819                    
V 21  -8959.266924  -5792.476581  29804.798943      0.071474                    
P 22  11015.291094  23653.830859   5431.665215   -721.407863                    
V 22  -1661.196574   7371.321664 -29927.725430     -0.055394                    
P 23  13192.393533   9098.611003  21555.653840   -180.424119                    
V 23 -19335.581198  18277.863855   3784.283758      0.017303                    
P 24 -18395.188600 -14697.791379 -12762.924371    -67.853509                    
V 24  15996.920250   1708.691498 -25004.034273     -0.006257                    
P 25 -15356.920546 -10415.706557  18886.228567   -768.153857                    
V 25  -3742.126233 -24057.730925 -15885.271497     -0.030798                    
P 26  -6183.483664  20814.602341  15153.991517    234.352064                    
V 26  -6739.545779 -18315.744413  22551.910774      0.093834                    
P 27  -7862.965278  20491.875082 -14847.722218   -165.913492                    
V 27 -15171.859015  11158.487761  23902.856276     -0.103106                    
P 28  12847.708628  -9319.221026 -20714.067461    767.206449                    
V 28   3878.434850  27363.435753  -9535.066725     -0.003487                    
P 29 -18433.717493  -1583.675758  19024.813431    168.922327                    
V 29  18388.940635 -15715.900268  16465.734139     -0.095529                    
P 30  23085.305620  -1581.683973 -13187.793451   -129.657607                    
V 30  14770.354538   8328.026889  24614.506701     -0.073855                    
P 31 -14492.529092   9749.982518  20128.488789     29.041575                    
V 31 -23637.501102  -9459.588065 -11999.209870     -0.025885                    
P 32 -20487.657317  16668.777461  -2014.972045    -31.110626                    
V 32    -97.079158  -4043.260125 -31598.021647      0.158340                    
EOF
